LEDSAT                  
1 49069U 21073D   24291.64535584  .00036475  00000+0  11506-2 0  9998
2 49069  97.4244   2.4455 0016414 206.7783 153.2613 15.32645623175156
XW-3 (CAS-9)            
1 50466U 21131B   24291.91822092  .00002664  00000+0  85762-3 0  9998
2 50466  98.5235  16.4145 0005186 116.0451 244.1272 14.40112945147661
GREENCUBE               
1 53106U 22080B   24281.96479996 -.00000003  00000+0  00000+0 0  9995
2 53106  70.1376 153.3488 0008243  81.8360 278.3235  6.42557544 52511
CAS-5A (FO-118)         
1 54684U 22167C   24291.89307031  .00077102  00000+0  16563-2 0  9993
2 54684  97.6161  80.7791 0006308  66.2876 293.9033 15.44387985103134
STRATOSAT-TK 1 (RS52S)  
1 57167U 23091B   24291.91583835  .00029497  00000+0  13872-2 0  9994
2 57167  97.5950 345.0732 0014156  60.2872 299.9770 15.19438855 72145
UMKA 1 (RS40S)          
1 57172U 23091G   24291.89925908  .00012129  00000+0  74247-3 0  9996
2 57172  97.5964 342.8048 0017171  65.3571 294.9444 15.10230909 71999
CUBESX-HSE 3 (RS42S)    
1 57178U 23091N   24291.90500920  .00016556  00000+0  94379-3 0  9993
2 57178  97.5998 343.6361 0017078  58.8967 301.3936 15.12738182 72034
MONITOR-4 (RS57S)       
1 57182U 23091S   24291.87457433  .00014576  00000+0  84939-3 0  9995
2 57182  97.5991 343.2964 0017775  60.5678 299.7323 15.11964931 72010
MONITOR-2 (RS39S)       
1 57184U 23091U   24291.86690160  .00010461  00000+0  64628-3 0  9994
2 57184  97.5998 343.1882 0014903  56.5964 303.6688 15.09965283 72006
SVYATOBOR 1 (RS60S)     
1 57187U 23091X   24291.86602729  .00013432  00000+0  77394-3 0  9996
2 57187  97.5998 343.9639 0013924  53.1371 307.1134 15.12443905 72050
VIZARD-METEO (RS38S)    
1 57189U 23091Z   24291.87984837  .00018394  00000+0  99467-3 0  9999
2 57189  97.5989 344.6659 0012582  50.1806 310.0531 15.14657796 72108
NANOZOND 1 (RS49S)      
1 57190U 23091AA  24291.87563917  .00029100  00000+0  13772-2 0  9994
2 57190  97.5956 345.7381 0010435  53.6714 306.5482 15.19263906 72183
POLYTECH-UNIVERSE 3 (R*)
1 57191U 23091AB  24291.87392856  .00010834  00000+0  66738-3 0  9992
2 57191  97.5965 342.8212 0020288  70.9272 289.4152 15.09984294 71993
UTMN 2 (RS27S)          
1 57203U 23091AP  24291.92092933  .00015893  00000+0  87964-3 0  9999
2 57203  97.5984 344.4547 0012907  50.5301 309.7070 15.13858693 72098
ARCCUBE 1 (RS25S)       
1 57205U 23091AR  24291.92173885  .00032095  00000+0  14162-2 0  9999
2 57205  97.5915 346.1394 0010110  53.1708 307.0453 15.21656679 72227
KUZGTU 1 (RS47S)        
1 57217U 23091AV  24291.86295736  .00015624  00000+0  89745-3 0  9994
2 57217  97.5976 343.3841 0017262  60.6225 299.6727 15.12475410 72025
HADES-D (SO-121)        
1 58567U 23174CY  24289.46998291  .00435963  00000+0  39716-2 0  9998
2 58567  97.4337   7.5964 0006223 207.7840 152.3088 15.66548994 52313
SONATE-2                
1 59112U 24043Q   24291.75845400  .00022519  00000+0  93866-3 0  9995
2 59112  97.4924  54.7421 0013370 223.6518 136.3663 15.23632458 34430
MESAT1                  
1 60209U 24125G   24291.34315008  .00025172  00000+0  10440-2 0  9990
2 60209  97.3054 141.2197 0022694 254.9862 104.8864 15.23618266 15985
OOV-CUBE (TUBSAT-30)    
1 60240U 24128F   24291.86612611  .00006639  00000+0  57942-3 0  9991
2 60240  61.9976 176.0537 0019529 346.4191  13.6369 14.97593035 14970
CUTE-1 (CO-55)          
1 27844U 03031E   24291.75422776  .00001711  00000+0  77033-3 0  9992
2 27844  98.6798 297.1129 0010345 143.2163 216.9727 14.23558472105223
CUBESAT XI-IV (CO-57)   
1 27848U 03031J   24291.94901120  .00001412  00000+0  64658-3 0  9999
2 27848  98.6830 297.4771 0009910 158.4176 201.7422 14.22958040104999
CUBESAT XI-V            
1 28895U 05043F   24291.84148040  .00005816  00000+0  99960-3 0  9996
2 28895  98.2193  68.0586 0014713 332.8248  27.2185 14.68953930 12450
CUTE-1.7+APD II (CO-65) 
1 32785U 08021C   24291.86746713  .00011813  00000+0  96671-3 0  9991
2 32785  97.7735 256.4646 0007351 286.3963  73.6452 14.99458933893845
AAUSAT-II               
1 32788U 08021F   24291.47162216  .00059556  00000+0  21394-2 0  9996
2 32788  97.6027 272.9393 0009100  95.8652 264.3625 15.28400837896921
CANX-2                  
1 32790U 08021H   24291.66675970  .00010050  00000+0  86491-3 0  9992
2 32790  97.7844 254.8915 0009172 294.2638  65.7625 14.97540245893685
SEEDS II (CO-66)        
1 32791U 08021J   24291.80514751  .00020772  00000+0  13331-2 0  9992
2 32791  97.7044 262.7248 0002042 235.7266 124.3769 15.08500647895050
SWISSCUBE               
1 35932U 09051B   24291.68033032  .00004869  00000+0  10257-2 0  9993
2 35932  98.4513 177.3821 0006137 310.1296  49.9365 14.59929024800427
BEESAT-1                
1 35933U 09051C   24291.57442873  .00004143  00000+0  88176-3 0  9990
2 35933  98.4443 178.0154 0004850 328.0795  32.0109 14.59545129800552
ITUPSAT1                
1 35935U 09051E   24291.88457299  .00004118  00000+0  89771-3 0  9998
2 35935  98.4539 178.0457 0007169 330.0739  30.0048 14.58442207800140
TISAT 1                 
1 36799U 10035E   24291.27061295  .00021358  00000+0  14342-2 0  9997
2 36799  98.0715 186.2122 0004191 147.7197 212.4286 15.06821875775613
AEROCUBE 4.5A           
1 38767U 12048K   24291.41008866  .00038227  00000+0  16680-2 0  9991
2 38767  64.6559 279.6178 0112453 338.9287  20.7221 15.16344863278950
AEROCUBE 4.5B           
1 38768U 12048L   24291.43815229  .00106111  00000+0  22659-2 0  9994
2 38768  64.6494 193.4916 0076953 324.5243  35.0787 15.41127045280148
STRAND-1                
1 39090U 13009E   24291.47512144  .00001640  00000+0  57449-3 0  9992
2 39090  98.3804 116.4296 0007792 244.8735 115.1643 14.36368705609797
BRITE-AUSTRIA           
1 39091U 13009F   24291.47738623  .00001150  00000+0  41020-3 0  9999
2 39091  98.3853 115.7073 0009203 253.3818 106.6358 14.36006800609819
NEE-01 PEGASO           
1 39151U 13018B   24291.78597183  .00007564  00000+0  83640-3 0  9993
2 39151  98.0494  50.3217 0014247   3.1703 356.9600 14.87607328620187
ESTCUBE 1               
1 39161U 13021C   24291.83083757  .00006138  00000+0  86337-3 0  9993
2 39161  97.8155 354.5665 0008760 184.1667 175.9472 14.77663651615233
POPACS 1                
1 39268U 13055D   24291.28263738  .00060692 -23567-6  87730-3 0  9990
2 39268  80.9770   9.7444 0355410  56.3848 307.0756 15.06957853580292
POPACS 2                
1 39269U 13055E   24291.92253089  .00019075  00000+0  42358-3 0  9995
2 39269  80.9972 105.5974 0526481 307.1142  48.3027 14.62805364573504
POPACS 3                
1 39270U 13055F   24291.37709858  .00016242  00000+0  42966-3 0  9994
2 39270  81.0073 161.0884 0614030 102.1959 264.8662 14.40671294550531
ZACUBE-1 (TSHEPISOSAT)  
1 39417U 13066B   24291.91918845  .00010388  00000+0  10101-2 0  9997
2 39417  97.7488 245.4079 0050404 112.5721 248.0842 14.91785785589861
WNISAT-1                
1 39423U 13066H   24291.52025153  .00002876  00000+0  54968-3 0  9995
2 39423  97.6680 115.9783 0168097 345.4535  14.1858 14.55931164578447
TRITON-1                
1 39427U 13066M   24291.84797362  .00009542  00000+0  12844-2 0  9995
2 39427  97.8372 205.9722 0101599  47.4151 313.5575 14.75842154584486
DELFI-N3XT              
1 39428U 13066N   24291.73970435  .00016767  00000+0  19695-2 0  9996
2 39428  97.8337 207.0528 0097822  51.2606 309.7300 14.81539966584211
GOMX-1                  
1 39430U 13066Q   24291.87680889  .00006648  00000+0  10776-2 0  9993
2 39430  97.7106 158.8065 0135867 221.9730 137.1000 14.65511830580827
CUBEBUG-2 (LO-74)       
1 39440U 13066AA  24291.79954098  .00010236  00000+0  11397-2 0  9999
2 39440  97.8229 233.0390 0064982 231.7935 127.7418 14.85748597586522
NEE-02 KRYSAOR          
1 39441U 13066AB  24291.81500835  .00007092  00000+0  86806-3 0  9993
2 39441  97.8312 228.3959 0070224 256.7496 102.5878 14.81747988586080
FUNCUBE-1 (AO-73)       
1 39444U 13066AE  24291.61607072  .00014176  00000+0  12569-2 0  9990
2 39444  97.7333 248.6067 0047815  92.8330 267.8365 14.95428569588383
UWE-3                   
1 39446U 13066AG  24291.84595341  .00008635  00000+0  90623-3 0  9993
2 39446  97.7935 239.2097 0057679 173.6459 186.5503 14.88507565586937
BRITE-CA1 (TORONTO)     
1 40020U 14033L   24291.83435902  .00004016  00000+0  63864-3 0  9999
2 40020  97.8954  64.8242 0082908  60.8743 300.0730 14.70293765552886
DUCHIFAT-1              
1 40021U 14033M   24291.70245880  .00028969  00000+0  16174-2 0  9994
2 40021  98.0994 282.3825 0014405  54.5839 305.6733 15.13402810562618
NANOSATC-BR1            
1 40024U 14033Q   24291.51834695  .00019676  00000+0  12779-2 0  9996
2 40024  98.0754 269.1586 0008603 106.9510 253.2660 15.08053092561651
QB50P1                  
1 40025U 14033R   24291.79314414  .00015059  00000+0  11124-2 0  9993
2 40025  98.0568 256.9555 0013688 121.2773 238.9794 15.03262128561278
QB50P2                  
1 40032U 14033Y   24291.60906951  .00014220  00000+0  10937-2 0  9994
2 40032  98.0172 247.5963 0013065  78.5618 281.7073 15.01750368561549
PERSEUS-M2              
1 40037U 14033AD  24291.90704687  .00006354  00000+0  63636-3 0  9998
2 40037  97.9324 223.2363 0013779 143.0347 217.1824 14.91672581560112
PERSEUS-M1              
1 40039U 14033AF  24291.74704329  .00006779  00000+0  68120-3 0  9999
2 40039  97.9098 218.7709 0013554 142.9887 217.2269 14.91516335559940
POLYITAN-1              
1 40042U 14033AJ  24291.65476653  .00023053  00000+0  15157-2 0  9994
2 40042  98.0845 261.4394 0015430  81.6069 278.6905 15.07495395561252
TIGRISAT                
1 40043U 14033AK  24291.88674097  .00006715  00000+0  86565-3 0  9990
2 40043  97.7086  89.5265 0052926 263.4158  96.1028 14.80361869555601
